LEMUR-1                 
1 40044U 14033AL  26159.40097071  .00002204  00000+0  25774-3 0  9999
2 40044  97.7869 309.4026 0049738 106.6533 254.0151 14.85211366644165
LEMUR-2-GREENBERG       
1 42837U 17042N   26159.46075249  .00014878  00000+0  49735-3 0  9996
2 42837  97.3822 340.1280 0009369  44.0124 316.1861 15.31058959487053
LEMUR-2-ANDIS           
1 42838U 17042P   26159.77065635  .00023283  00000+0  69667-3 0  9995
2 42838  97.3685 340.5919 0008876  42.4309 317.7619 15.34512217487168
LEMUR-2-MONSON          
1 42839U 17042Q   26159.31970611  .00012957  00000+0  47962-3 0  9995
2 42839  97.4083 339.9733 0007026  36.5128 323.6589 15.27777072486814
LEMUR-2-FURIAUS         
1 42840U 17042R   26159.44835442  .00015692  00000+0  54249-3 0  9998
2 42840  97.3774 338.0911 0008524  95.9048 264.3165 15.29962356486874
LEMUR-2-PETERG          
1 42841U 17042S   26159.48856020  .00019468  00000+0  60182-3 0  9996
2 42841  97.3995 344.5080 0003947  29.2168 330.9294 15.33546022487109
LEMUR-2-DEMBITZ         
1 42842U 17042T   26159.46853964  .00013408  00000+0  46320-3 0  9995
2 42842  97.3828 341.1277 0007458  56.9439 303.2517 15.30030271487017
LEMUR-2-ZACHARY         
1 42845U 17042W   26159.79694164  .00046723  00000+0  84502-3 0  9999
2 42845  97.3614 351.2598 0003488  62.8238 297.3369 15.49542250487904
LEMUR-2-AMANDA-SVANTE   
1 48269U 21034B   26159.74730161  .00031603  00000+0  96657-3 0  9999
2 48269  97.5759 237.8139 0001316 241.9596 118.1513 15.33793989279761
LEMUR-2-SPECIAL-K       
1 48273U 21034F   26159.76415084  .00143209  00000+0  16094-2 0  9992
2 48273  97.5647 246.0278 0003250 233.3461 126.7498 15.62130553280373
LEMUR-2-EMBRIONOVIS     
1 56970U 23084AQ  26159.35016112  .00011715  00000+0  32216-3 0  9997
2 56970  97.6281 303.2130 0008353 354.5892   5.5261 15.37328141166321
LEMUR-2-DEVERILL-M-T    
1 57391U 23100F   26159.07059470  .00030234  00000+0  77515-3 0  9995
2 57391  99.4478 195.1998 0007184  78.2426 281.9619 15.39306750159841
LEMUR-2-BASS            
1 58259U 23174D   26159.77938892  .00018346  00000+0  42003-3 0  9995
2 58259  97.3844 244.3764 0007100 189.7822 170.3289 15.42818041144060
LEMUR-2-JK0903EM1407    
1 58336U 23174CJ  26159.75908604  .00027741  00000+0  47398-3 0  9998
2 58336  97.3911 249.9965 0005968 143.3211 216.8451 15.51250086144429
LEMUR-2-MJR092620       
1 58340U 23174CN  26159.80230789  .00018673  00000+0  40308-3 0  9999
2 58340  97.3967 249.6794 0007078 142.3056 217.8689 15.44566303144352
LEMUR-2-NIMBUS2000      
1 58899U 24022A   26159.82595939  .00016355  00000+0  41466-3 0  9995
2 58899  97.4121   9.7242 0010000 141.5902 218.6057 15.39728316130987
LEMUR-2-VALHALLA        
1 58900U 24022B   26159.82045721  .00016798  00000+0  43005-3 0  9999
2 58900  97.4120   9.7137 0010562 137.8845 222.3214 15.39419856130982
LEMUR-2-OBA-NI-JESU     
1 58902U 24022D   26159.13691993  .01105389  73752-3  12740-2 0  9998
2 58902  97.3720  23.6731 0004544 198.6577 161.4540 16.09129280131875
LEMUR-2-CAEL            
1 58903U 24022E   26159.83730259  .00016630  00000+0  40844-3 0  9993
2 58903  97.4104  10.6518 0009151 122.0260 238.1876 15.40701604131055
LEMUR-2-JOHNNYTRUONG    
1 59146U 24043BA  26159.36300613  .00032364  00000+0  40388-3 0  9996
2 59146  97.5374 310.5249 0004531 204.0195 156.0851 15.59808527126667
LEMUR-2-TOMATOKECHUP    
1 60471U 24149D   26159.76829962  .00011578  00000+0  33401-3 0  9995
2 60471  97.3794 241.7949 0000610 200.2365 159.8855 15.35857069100876
LEMUR-2-STELLA          
1 60533U 24149BT  26159.74164228  .00011402  00000+0  67427-3 0  9990
2 60533  97.6731 242.1612 0001901 100.0747 260.0697 15.11628707 99220
LEMUR-2-MARHISYAM       
1 60536U 24149BW  26159.78514104  .00012226  00000+0  73346-3 0  9991
2 60536  97.6873 242.6451 0003028 135.4723 224.6750 15.11088438 99210
LEMUR-2-AHMED-ASRAR     
1 60576U 24149DN  26159.76114628  .00012708  00000+0  73249-3 0  9997
2 60576  97.6999 244.6816 0002647  63.4802 296.6700 15.12525858 99299
LEMUR-2-LLOYD           
1 60577U 24149DP  26159.75430872  .00010735  00000+0  68094-3 0  9999
2 60577  97.6745 240.8800 0004517 159.6823 200.4586 15.09079492 99120
LEMUR-2-SQUIRRELCOMM    
1 60578U 24149DQ  26159.75700581  .00006663  00000+0  44809-3 0  9990
2 60578  97.6715 240.6958 0006936  85.0748 275.1271 15.07060835 99135
LEMUR-2-SIERRINI        
1 60579U 24149DR  26159.80690306  .00010111  00000+0  61266-3 0  9999
2 60579  97.6836 242.3635 0005146 189.4478 170.6655 15.10770411 99195
LEMUR-2-WILSON          
1 62694U 25009CP  26159.72943052  .00001980  00000+0  18568-3 0  9996
2 62694  97.7025 238.3429 0004562  75.1064 285.0662 14.95131491 76099
LEMUR-2-STAR-FOX        
1 62696U 25009CR  26159.76779727  .00009062  00000+0  68865-3 0  9992
2 62696  97.6944 241.4378 0002952 134.4783 225.6684 15.02380338 76297
LEMUR-2-ARIANNA         
1 62699U 25009CU  26159.76602994  .00009005  00000+0  68470-3 0  9995
2 62699  97.6884 241.2171 0003272 141.5313 218.6145 15.02360819 76292
