OBJECT_NAME,OBJECT_ID,EPOCH,MEAN_MOTION,ECCENTRICITY,INCLINATION,RA_OF_ASC_NODE,ARG_OF_PERICENTER,MEAN_ANOMALY,EPHEMERIS_TYPE,CLASSIFICATION_TYPE,NORAD_CAT_ID,ELEMENT_SET_NO,REV_AT_EPOCH,BSTAR,MEAN_MOTION_DOT,MEAN_MOTION_DDOT
LEMUR-1,2014-033AL,2026-06-08T09:37:23.869344,14.85211366,.0049738,97.7869,309.4026,106.6533,254.0151,0,U,40044,999,64416,.25774E-3,.2204E-4,0
LEMUR-2-GREENBERG,2017-042N,2026-06-08T11:03:29.015136,15.31058959,.0009369,97.3822,340.1280,44.0124,316.1861,0,U,42837,999,48705,.49735E-3,.14878E-3,0
LEMUR-2-ANDIS,2017-042P,2026-06-08T18:29:44.708640,15.34512217,.0008876,97.3685,340.5919,42.4309,317.7619,0,U,42838,999,48716,.69667E-3,.23283E-3,0
LEMUR-2-MONSON,2017-042Q,2026-06-08T07:40:22.607040,15.27777072,.0007026,97.4083,339.9733,36.5128,323.6589,0,U,42839,999,48681,.47962E-3,.12957E-3,0
LEMUR-2-FURIAUS,2017-042R,2026-06-08T10:45:37.821024,15.29962356,.0008524,97.3774,338.0911,95.9048,264.3165,0,U,42840,999,48687,.54249E-3,.15692E-3,0
LEMUR-2-PETERG,2017-042S,2026-06-08T11:43:31.601280,15.33546022,.0003948,97.3995,344.5080,29.2168,330.9294,0,U,42841,999,48710,.60182E-3,.19468E-3,0
LEMUR-2-DEMBITZ,2017-042T,2026-06-08T11:14:41.824032,15.30030271,.0007458,97.3828,341.1277,56.9439,303.2517,0,U,42842,999,48701,.4632E-3,.13408E-3,0
LEMUR-2-ZACHARY,2017-042W,2026-06-08T19:07:35.757696,15.49542250,.0003488,97.3614,351.2598,62.8238,297.3369,0,U,42845,999,48790,.84502E-3,.46723E-3,0
LEMUR-2-AMANDA-SVANTE,2021-034B,2026-06-08T17:56:06.859104,15.33793989,.0001316,97.5759,237.8139,241.9596,118.1513,0,U,48269,999,27976,.96657E-3,.31603E-3,0
LEMUR-2-SPECIAL-K,2021-034F,2026-06-08T18:20:22.632576,15.62130553,.000325,97.5647,246.0278,233.3461,126.7498,0,U,48273,999,28037,.16094E-2,.143209E-2,0
LEMUR-2-EMBRIONOVIS,2023-084AQ,2026-06-08T08:24:13.919904,15.37328141,.0008353,97.6281,303.2130,354.5892,5.5261,0,U,56970,999,16632,.32216E-3,.11715E-3,0
LEMUR-2-DEVERILL-M-T,2023-100F,2026-06-08T01:41:39.382080,15.39306750,.00071844,99.4478,195.1998,78.2426,281.9619,0,U,57391,999,15984,.77514775E-3,.30234E-3,0
LEMUR-2-BASS,2023-174D,2026-06-08T18:42:19.202688,15.42818041,.00071,97.3844,244.3764,189.7822,170.3289,0,U,58259,999,14406,.42003E-3,.18346E-3,0
LEMUR-2-JK0903EM1407,2023-174CJ,2026-06-08T18:13:05.033856,15.51250086,.0005968,97.3911,249.9965,143.3211,216.8451,0,U,58336,999,14442,.47398E-3,.27741E-3,0
LEMUR-2-MJR092620,2023-174CN,2026-06-08T19:15:19.401696,15.44566303,.0007078,97.3967,249.6794,142.3056,217.8689,0,U,58340,999,14435,.40308E-3,.18673E-3,0
LEMUR-2-NIMBUS2000,2024-022A,2026-06-08T19:49:22.891296,15.39728316,.001,97.4121,9.7242,141.5902,218.6057,0,U,58899,999,13098,.41466E-3,.16355E-3,0
LEMUR-2-VALHALLA,2024-022B,2026-06-08T19:41:27.502944,15.39419856,.0010562,97.4120,9.7137,137.8845,222.3214,0,U,58900,999,13098,.43005E-3,.16798E-3,0
LEMUR-2-OBA-NI-JESU,2024-022D,2026-06-08T03:17:09.881952,16.09129280,.00045442,97.3720,23.6731,198.6577,161.4540,0,U,58902,999,13187,.12739733E-2,.1105389E-1,.73751929E-3
LEMUR-2-CAEL,2024-022E,2026-06-08T20:05:42.943776,15.40701604,.0009151,97.4104,10.6518,122.0260,238.1876,0,U,58903,999,13105,.40844E-3,.1663E-3,0
LEMUR-2-JOHNNYTRUONG,2024-043BA,2026-06-08T08:42:43.728768,15.59808527,.0004531,97.5374,310.5249,204.0195,156.0851,0,U,59146,999,12666,.40388E-3,.32364E-3,0
LEMUR-2-TOMATOKECHUP,2024-149D,2026-06-08T18:26:21.087168,15.35857069,.000061,97.3794,241.7949,200.2365,159.8855,0,U,60471,999,10087,.33401E-3,.11578E-3,0
LEMUR-2-STELLA,2024-149BT,2026-06-08T17:47:57.892992,15.11628707,.0001901,97.6731,242.1612,100.0747,260.0697,0,U,60533,999,9922,.67427E-3,.11402E-3,0
LEMUR-2-MARHISYAM,2024-149BW,2026-06-08T18:50:36.185856,15.11088438,.0003028,97.6873,242.6451,135.4723,224.6750,0,U,60536,999,9921,.73346E-3,.12226E-3,0
LEMUR-2-AHMED-ASRAR,2024-149DN,2026-06-08T18:16:03.038592,15.12525858,.0002647,97.6999,244.6816,63.4802,296.6700,0,U,60576,999,9929,.73249E-3,.12708E-3,0
LEMUR-2-LLOYD,2024-149DP,2026-06-08T18:06:12.273408,15.09079492,.0004517,97.6745,240.8800,159.6823,200.4586,0,U,60577,999,9912,.68094E-3,.10735E-3,0
LEMUR-2-SQUIRRELCOMM,2024-149DQ,2026-06-08T18:10:05.301984,15.07060835,.0006936,97.6715,240.6958,85.0748,275.1271,0,U,60578,999,9913,.44809E-3,.6663E-4,0
LEMUR-2-SIERRINI,2024-149DR,2026-06-08T19:21:56.424384,15.10770411,.0005146,97.6836,242.3635,189.4478,170.6655,0,U,60579,999,9919,.61266E-3,.10111E-3,0
LEMUR-2-WILSON,2025-009CP,2026-06-08T17:30:22.796928,14.95131491,.0004562,97.7025,238.3429,75.1064,285.0662,0,U,62694,999,7609,.18568E-3,.198E-4,0
LEMUR-2-STAR-FOX,2025-009CR,2026-06-08T18:25:37.684128,15.02380338,.0002952,97.6944,241.4378,134.4783,225.6684,0,U,62696,999,7629,.68865E-3,.9062E-4,0
LEMUR-2-ARIANNA,2025-009CU,2026-06-08T18:23:04.986816,15.02360819,.0003272,97.6884,241.2171,141.5313,218.6145,0,U,62699,999,7629,.6847E-3,.9005E-4,0
